{"type": "FeatureCollection", "features": [ {"type": "Feature", "properties": {"norad_id": 39155, "name": "COSMOS 2485 (747)", "group": "glo-ops", "lat": -63.79148017676088, "lon": -31.57320341803111, "alt_km": 19081.712910498012, "timestamp": "2025-12-21T09:37:22.915649+00:00", "meta": {"OBJECT_NAME": "COSMOS 2485 (747)", "OBJECT_ID": "2013-019A", "EPOCH": "2025-12-20T02:56:15.241632", "MEAN_MOTION": 2.1310322, "ECCENTRICITY": 0.0024876, "INCLINATION": 65.3174, "RA_OF_ASC_NODE": 79.6189, "ARG_OF_PERICENTER": 230.2075, "MEAN_ANOMALY": 129.6042, "EPHEMERIS_TYPE": 0, "CLASSIFICATION_TYPE": "U", "NORAD_CAT_ID": 39155, "ELEMENT_SET_NO": 999, "REV_AT_EPOCH": 9846, "BSTAR": 0, "MEAN_MOTION_DOT": -2e-07, "MEAN_MOTION_DDOT": 0}, "tle": {"line1": "1 39155U 13019A   25354.12239863 -.00000020  00000+0  00000+0 0  9991", "line2": "2 39155  65.3174  79.6189 0024876 230.2075 129.6042  2.13103220 98462"}}, "geometry": {"type": "Point", "coordinates": [-31.57320341803111, -63.79148017676088]}}, {"type": "Feature", "properties": {"norad_id": 39620, "name": "COSMOS 2492 (754)", "group": "glo-ops", "lat": -57.16049301836352, "lon": -85.22092660138043, "alt_km": 19101.91083639717, "timestamp": "2025-12-21T09:37:22.915660+00:00", "meta": {"OBJECT_NAME": "COSMOS 2492 (754)", "OBJECT_ID": "2014-012A", "EPOCH": "2025-12-21T00:28:06.093408", "MEAN_MOTION": 2.13103398, "ECCENTRICITY": 0.0014228, "INCLINATION": 65.4029, "RA_OF_ASC_NODE": 319.9893, "ARG_OF_PERICENTER": 312.8243, "MEAN_ANOMALY": 47.0487, "EPHEMERIS_TYPE": 0, "CLASSIFICATION_TYPE": "U", "NORAD_CAT_ID": 39620, "ELEMENT_SET_NO": 999, "REV_AT_EPOCH": 9144, "BSTAR": 0, "MEAN_MOTION_DOT": -4.8e-07, "MEAN_MOTION_DDOT": 0}, "tle": {"line1": "1 39620U 14012A   25355.01951497 -.00000048  00000+0  00000+0 0  9995", "line2": "2 39620  65.4029 319.9893 0014228 312.8243  47.0487  2.13103398 91448"}}, "geometry": {"type": "Point", "coordinates": [-85.22092660138043, -57.16049301836352]}}, {"type": "Feature", "properties": {"norad_id": 40001, "name": "COSMOS 2500 (755)", "group": "glo-ops", "lat": 17.62679639470319, "lon": 131.33132223643844, "alt_km": 19117.57329190351, "timestamp": "2025-12-21T09:37:22.915672+00:00", "meta": {"OBJECT_NAME": "COSMOS 2500 (755)", "OBJECT_ID": "2014-032A", "EPOCH": "2025-12-20T06:04:27.939360", "MEAN_MOTION": 2.13106249, "ECCENTRICITY": 0.00077498, "INCLINATION": 65.339, "RA_OF_ASC_NODE": 319.7771, "ARG_OF_PERICENTER": 219.4032, "MEAN_ANOMALY": 140.5324, "EPHEMERIS_TYPE": 0, "CLASSIFICATION_TYPE": "U", "NORAD_CAT_ID": 40001, "ELEMENT_SET_NO": 999, "REV_AT_EPOCH": 8964, "BSTAR": 0, "MEAN_MOTION_DOT": -5.3e-07, "MEAN_MOTION_DDOT": 0}, "tle": {"line1": "1 40001U 14032A   25354.25310115 -.00000053  00000+0  00000+0 0  9999", "line2": "2 40001  65.3390 319.7771 0007749 219.4032 140.5324  2.13106249 89640"}}, "geometry": {"type": "Point", "coordinates": [131.33132223643844, 17.62679639470319]}}, {"type": "Feature", "properties": {"norad_id": 40315, "name": "COSMOS 2501 (702K)", "group": "glo-ops", "lat": -33.99228509273073, "lon": 176.96169142453914, "alt_km": 19157.705605872656, "timestamp": "2025-12-21T09:37:22.915683+00:00", "meta": {"OBJECT_NAME": "COSMOS 2501 (702K)", "OBJECT_ID": "2014-075A", "EPOCH": "2025-12-19T02:31:27.452640", "MEAN_MOTION": 2.13101513, "ECCENTRICITY": 0.0020099, "INCLINATION": 63.6146, "RA_OF_ASC_NODE": 196.6046, "ARG_OF_PERICENTER": 204.1838, "MEAN_ANOMALY": 155.7988, "EPHEMERIS_TYPE": 0, "CLASSIFICATION_TYPE": "U", "NORAD_CAT_ID": 40315, "ELEMENT_SET_NO": 999, "REV_AT_EPOCH": 8601, "BSTAR": 0, "MEAN_MOTION_DOT": 1.06e-06, "MEAN_MOTION_DDOT": 0}, "tle": {"line1": "1 40315U 14075A   25353.10517885  .00000106  00000+0  00000+0 0  9998", "line2": "2 40315  63.6146 196.6046 0020099 204.1838 155.7988  2.13101513 86014"}}, "geometry": {"type": "Point", "coordinates": [176.96169142453914, -33.99228509273073]}}, {"type": "Feature", "properties": {"norad_id": 41330, "name": "COSMOS 2514 (751)", "group": "glo-ops", "lat": -23.82940067683338, "lon": -52.72544056086765, "alt_km": 19145.140236946347, "timestamp": "2025-12-21T09:37:22.915694+00:00", "meta": {"OBJECT_NAME": "COSMOS 2514 (751)", "OBJECT_ID": "2016-008A", "EPOCH": "2025-12-20T23:11:21.346656", "MEAN_MOTION": 2.13102678, "ECCENTRICITY": 0.0011747, "INCLINATION": 65.1291, "RA_OF_ASC_NODE": 319.1224, "ARG_OF_PERICENTER": 220.1373, "MEAN_ANOMALY": 139.7688, "EPHEMERIS_TYPE": 0, "CLASSIFICATION_TYPE": "U", "NORAD_CAT_ID": 41330, "ELEMENT_SET_NO": 999, "REV_AT_EPOCH": 7682, "BSTAR": 0, "MEAN_MOTION_DOT": -4.9e-07, "MEAN_MOTION_DDOT": 0}, "tle": {"line1": "1 41330U 16008A   25354.96621929 -.00000049  00000+0  00000+0 0  9991", "line2": "2 41330  65.1291 319.1224 0011747 220.1373 139.7688  2.13102678 76822"}}, "geometry": {"type": "Point", "coordinates": [-52.72544056086765, -23.82940067683338]}}, {"type": "Feature", "properties": {"norad_id": 42939, "name": "COSMOS 2522 (752)", "group": "glo-ops", "lat": 63.071803193482125, "lon": -55.418769636223466, "alt_km": 19132.60006317665, "timestamp": "2025-12-21T09:37:22.915707+00:00", "meta": {"OBJECT_NAME": "COSMOS 2522 (752)", "OBJECT_ID": "2017-055A", "EPOCH": "2025-12-20T19:18:35.639424", "MEAN_MOTION": 2.13102071, "ECCENTRICITY": 0.0006306, "INCLINATION": 64.0764, "RA_OF_ASC_NODE": 197.9542, "ARG_OF_PERICENTER": 223.7674, "MEAN_ANOMALY": 136.256, "EPHEMERIS_TYPE": 0, "CLASSIFICATION_TYPE": "U", "NORAD_CAT_ID": 42939, "ELEMENT_SET_NO": 999, "REV_AT_EPOCH": 6417, "BSTAR": 0, "MEAN_MOTION_DOT": 9.9e-07, "MEAN_MOTION_DDOT": 0}, "tle": {"line1": "1 42939U 17055A   25354.80457916  .00000099  00000+0  00000+0 0  9990", "line2": "2 42939  64.0764 197.9542 0006306 223.7674 136.2560  2.13102071 64177"}}, "geometry": {"type": "Point", "coordinates": [-55.418769636223466, 63.071803193482125]}}, {"type": "Feature", "properties": {"norad_id": 43508, "name": "COSMOS 2527 (756)", "group": "glo-ops", "lat": 46.263382467923016, "lon": -128.5853680750989, "alt_km": 19128.346472773246, "timestamp": "2025-12-21T09:37:22.915720+00:00", "meta": {"OBJECT_NAME": "COSMOS 2527 (756)", "OBJECT_ID": "2018-053A", "EPOCH": "2025-12-20T18:22:11.791200", "MEAN_MOTION": 2.13102375, "ECCENTRICITY": 0.0008872, "INCLINATION": 65.4768, "RA_OF_ASC_NODE": 79.8631, "ARG_OF_PERICENTER": 227.1027, "MEAN_ANOMALY": 132.8569, "EPHEMERIS_TYPE": 0, "CLASSIFICATION_TYPE": "U", "NORAD_CAT_ID": 43508, "ELEMENT_SET_NO": 999, "REV_AT_EPOCH": 5847, "BSTAR": 0, "MEAN_MOTION_DOT": -1.4e-07, "MEAN_MOTION_DDOT": 0}, "tle": {"line1": "1 43508U 18053A   25354.76541425 -.00000014  00000+0  00000+0 0  9994", "line2": "2 43508  65.4768  79.8631 0008872 227.1027 132.8569  2.13102375 58470"}}, "geometry": {"type": "Point", "coordinates": [-128.5853680750989, 46.263382467923016]}}, {"type": "Feature", "properties": {"norad_id": 43687, "name": "COSMOS 2529 (757)", "group": "glo-ops", "lat": 45.872540142752875, "lon": -131.60292942634447, "alt_km": 19141.360251242822, "timestamp": "2025-12-21T09:37:22.915732+00:00", "meta": {"OBJECT_NAME": "COSMOS 2529 (757)", "OBJECT_ID": "2018-086A", "EPOCH": "2025-12-20T20:42:25.544160", "MEAN_MOTION": 2.13102145, "ECCENTRICITY": 0.0007021, "INCLINATION": 64.2923, "RA_OF_ASC_NODE": 198.6139, "ARG_OF_PERICENTER": 253.6005, "MEAN_ANOMALY": 106.3966, "EPHEMERIS_TYPE": 0, "CLASSIFICATION_TYPE": "U", "NORAD_CAT_ID": 43687, "ELEMENT_SET_NO": 999, "REV_AT_EPOCH": 5548, "BSTAR": 0, "MEAN_MOTION_DOT": 9.8e-07, "MEAN_MOTION_DDOT": 0}, "tle": {"line1": "1 43687U 18086A   25354.86279565  .00000098  00000+0  00000+0 0  9993", "line2": "2 43687  64.2923 198.6139 0007021 253.6005 106.3966  2.13102145 55486"}}, "geometry": {"type": "Point", "coordinates": [-131.60292942634447, 45.872540142752875]}}, {"type": "Feature", "properties": {"norad_id": 44299, "name": "COSMOS 2534 (758)", "group": "glo-ops", "lat": -6.461878111259032, "lon": 21.725358048381878, "alt_km": 19133.94535822923, "timestamp": "2025-12-21T09:37:22.915743+00:00", "meta": {"OBJECT_NAME": "COSMOS 2534 (758)", "OBJECT_ID": "2019-030A", "EPOCH": "2025-12-18T18:30:09.690336", "MEAN_MOTION": 2.13102412, "ECCENTRICITY": 0.0008748, "INCLINATION": 64.3658, "RA_OF_ASC_NODE": 198.6898, "ARG_OF_PERICENTER": 284.2192, "MEAN_ANOMALY": 45.4012, "EPHEMERIS_TYPE": 0, "CLASSIFICATION_TYPE": "U", "NORAD_CAT_ID": 44299, "ELEMENT_SET_NO": 999, "REV_AT_EPOCH": 5107, "BSTAR": 0, "MEAN_MOTION_DOT": 1.08e-06, "MEAN_MOTION_DDOT": 0}, "tle": {"line1": "1 44299U 19030A   25352.77094549  .00000108  00000+0  00000+0 0  9990", "line2": "2 44299  64.3658 198.6898 0008748 284.2192  45.4012  2.13102412 51071"}}, "geometry": {"type": "Point", "coordinates": [21.725358048381878, -6.461878111259032]}}, {"type": "Feature", "properties": {"norad_id": 44850, "name": "COSMOS 2544 (759)", "group": "glo-ops", "lat": 9.23745945382584, "lon": -104.57067011052747, "alt_km": 19123.081355521605, "timestamp": "2025-12-21T09:37:22.915754+00:00", "meta": {"OBJECT_NAME": "COSMOS 2544 (759)", "OBJECT_ID": "2019-088A", "EPOCH": "2025-12-21T04:18:06.689376", "MEAN_MOTION": 2.13102125, "ECCENTRICITY": 0.0014189, "INCLINATION": 65.4644, "RA_OF_ASC_NODE": 79.6762, "ARG_OF_PERICENTER": 250.1854, "MEAN_ANOMALY": 109.6984, "EPHEMERIS_TYPE": 0, "CLASSIFICATION_TYPE": "U", "NORAD_CAT_ID": 44850, "ELEMENT_SET_NO": 999, "REV_AT_EPOCH": 4692, "BSTAR": 0, "MEAN_MOTION_DOT": -1e-07, "MEAN_MOTION_DDOT": 0}, "tle": {"line1": "1 44850U 19088A   25355.17924409 -.00000010  00000+0  00000+0 0  9993", "line2": "2 44850  65.4644  79.6762 0014189 250.1854 109.6984  2.13102125 46922"}}, "geometry": {"type": "Point", "coordinates": [-104.57067011052747, 9.23745945382584]}}]}